BEIDOU 3 (C01)          
1 36287U 10001A   22099.50331133 -.00000280  00000+0  00000+0 0  9998
2 36287   1.9626  49.4082 0003389  12.6528  97.2646  1.00273679 44823
BEIDOU 5 (C06)          
1 36828U 10036A   22099.60717782 -.00000136  00000+0  00000+0 0  9996
2 36828  54.1904 176.8602 0027761 185.8219 162.0641  1.00266075 42888
BEIDOU 6 (C04)          
1 37210U 10057A   22099.65049553 -.00000113  00000+0  00000+0 0  9999
2 37210   0.7457  39.3114 0002243 199.4549 353.2551  1.00271740 41945
BEIDOU 7 (C07)          
1 37256U 10068A   22099.30376441 -.00000168  00000+0  00000+0 0  9992
2 37256  50.3355 290.4688 0018559 182.1073 302.9426  1.00271429 41459
BEIDOU 8 (C08)          
1 37384U 11013A   22099.59279821 -.00000164  00000+0  00000+0 0  9996
2 37384  60.1976  54.9381 0018485 194.5754 270.4992  1.00273911 40334
BEIDOU 9 (C09)          
1 37763U 11038A   22098.84536418 -.00000078  00000+0  00000+0 0  9993
2 37763  54.4726 179.3496 0095211 226.9342 187.4162  1.00293036 39309
BEIDOU 10 (C10)         
1 37948U 11073A   22099.49424065 -.00000119  00000+0  00000+0 0  9999
2 37948  50.4494 290.1014 0077315 217.4620 323.6739  1.00268244 38068
BEIDOU 11 (C05)         
1 38091U 12008A   22099.61833753  .00000057  00000+0  00000+0 0  9990
2 38091   1.4119  65.4309 0014807 322.1728  91.4935  1.00271887 37141
BEIDOU 12 (C11)         
1 38250U 12018A   22099.28566852 -.00000099  00000+0  00000+0 0  9991
2 38250  56.7119 355.8437 0021689 257.8412  18.8029  1.86234350 67798
BEIDOU 13 (C12)         
1 38251U 12018B   22099.21863722 -.00000099  00000+0  00000+0 0  9991
2 38251  56.6300 355.1765 0012773 264.9223  11.0285  1.86234192 67793
BEIDOU 15 (C14)         
1 38775U 12050B   22099.17701150  .00000043  00000+0  00000+0 0  9997
2 38775  55.3592 114.0152 0015094 318.5138 126.0769  1.86231283 65177
BEIDOU 16 (C02)         
1 38953U 12059A   22099.49206020 -.00000175  00000+0  00000+0 0  9992
2 38953   1.8177  84.4876 0013242 292.4290  81.9517  1.00269732 34571
BEIDOU 17 (C31)         
1 40549U 15019A   22098.88422491 -.00000136  00000+0  00000+0 0  9996
2 40549  52.0024 313.5609 0035598 188.4231 106.8889  1.00257248 25737
BEIDOU 18 (C57)         
1 40748U 15037A   22099.13123426 -.00000099  00000+0  00000+0 0  9990
2 40748  55.8846 354.0868 0005655  13.0785 113.7941  1.86233231 45622
BEIDOU 19 (C58)         
1 40749U 15037B   22099.14226737 -.00000099  00000+0  00000+0 0  9991
2 40749  55.8876 354.0762 0006351 338.6229 290.4581  1.86232117 45616
BEIDOU 20 (C18)         
1 40938U 15053A   22099.27679041 -.00000097  00000+0  00000+0 0  9991
2 40938  51.6090 276.6627 0044813 192.3359 283.1408  1.00262402 24015
BEIDOU IGSO-6 (C13)     
1 41434U 16021A   22096.71018900 -.00000129  00000+0  00000+0 0  9992
2 41434  57.9993  53.5742 0043065 219.8839 269.4073  1.00256663 22110
BEIDOU-2 G7 (C03)       
1 41586U 16037A   22099.49729329 -.00000354  00000+0  00000+0 0  9999
2 41586   1.8244  68.7178 0009284 359.4216  59.0361  1.00266228 21458
BEIDOU-3 M1 (C19)       
1 43001U 17069A   22099.02865934  .00000042  00000+0  00000+0 0  9994
2 43001  55.5127 114.0111 0012205 289.5415 211.7893  1.86231587 30104
BEIDOU-3 M2 (C20)       
1 43002U 17069B   22098.95993110  .00000041  00000+0  00000+0 0  9993
2 43002  55.5122 114.0497 0010211 306.3494 192.0246  1.86231343 30098
BEIDOU-3 M3 (C27)       
1 43107U 18003A   22099.34153543 -.00000099  00000+0  00000+0 0  9994
2 43107  55.3337 355.0280 0005574  43.5843 156.6818  1.86232399 28866
BEIDOU-3 M4 (C28)       
1 43108U 18003B   22099.26726537 -.00000100  00000+0  00000+0 0  9998
2 43108  55.3270 355.0196 0002681 277.9192 276.8313  1.86230847 28866
BEIDOU-3 M5 (C21)       
1 43207U 18018A   22098.34863640  .00000033  00000+0  00000+0 0  9993
2 43207  55.4720 114.1506 0007196 321.2412  38.7491  1.86231567 28233
BEIDOU-3 M6 (C22)       
1 43208U 18018B   22097.87831490  .00000028  00000+0  00000+0 0  9993
2 43208  55.4706 114.1710 0010242 297.8208  62.1166  1.86231667 28222
BEIDOU-3 M7 (C29)       
1 43245U 18029A   22099.07799438 -.00000099  00000+0  00000+0 0  9994
2 43245  55.2503 352.8102 0001445   7.5919 286.3568  1.86232498 27398
BEIDOU-3 M8 (C30)       
1 43246U 18029B   22099.01002457 -.00000099  00000+0  10000-3 0  9992
2 43246  55.2481 352.8426 0005289   0.0848 294.7675  1.86232686 27382
BEIDOU IGSO-7 (C16)     
1 43539U 18057A   22099.61272990 -.00000138  00000+0  00000+0 0  9994
2 43539  55.0725 176.3143 0047239 225.3629 128.2280  1.00278978 13817
BEIDOU-3 M9 (C23)       
1 43581U 18062A   22098.95114720  .00000004  00000+0  00000+0 0  9990
2 43581  54.2991 234.4622 0001915 297.2947 168.9107  1.86231810 25135
BEIDOU-3 M10 (C24)      
1 43582U 18062B   22098.69249529  .00000005  00000+0  00000+0 0  9999
2 43582  54.2989 234.4609 0005652  22.7505   1.7634  1.86232050 25137
BEIDOU-3 M11 (C25)      
1 43602U 18067A   22098.63117550  .00000005  00000+0  00000+0 0  9999
2 43602  54.3793 233.0713 0007220  14.7782  10.1474  1.86231605 24620
BEIDOU-3 M12 (C26)      
1 43603U 18067B   22098.71928118  .00000004  00000+0  00000+0 0  9998
2 43603  54.3767 233.0353 0004340   8.9533 345.4329  1.86231559 24633
BEIDOU-3 M13 (C32)      
1 43622U 18072A   22098.77657838  .00000038  00000+0  00000+0 0  9996
2 43622  55.4378 113.6937 0008825 284.9077 137.3761  1.86231547 24158
BEIDOU-3 M14 (C33)      
1 43623U 18072B   22098.64092252  .00000037  00000+0  00000+0 0  9995
2 43623  55.4398 113.6904 0006585 302.4581 119.1075  1.86231514 24152
BEIDOU-3 M15 (C34)      
1 43647U 18078A   22098.44084000 -.00000102  00000+0  10000-3 0  9996
2 43647  55.1452 352.9959 0007710   4.1243 178.7666  1.86232959 23651
BEIDOU-3 M16 (C35)      
1 43648U 18078B   22098.74024582 -.00000101  00000+0  00000+0 0  9993
2 43648  55.1417 352.9929 0005698  11.5159 280.0348  1.86232173 23675
BEIDOU-3 G1 (C59)       
1 43683U 18085A   22099.52410645 -.00000279  00000+0  00000+0 0  9992
2 43683   0.8439 178.2974 0002141 333.4169  14.6652  1.00277177 12712
BEIDOU-3 M17 (C36)      
1 43706U 18093A   22099.53103595  .00000000  00000+0  00000+0 0  9992
2 43706  54.3802 234.3235 0007986 275.5787  84.3015  1.86232006 23056
BEIDOU-3 M18 (C37)      
1 43707U 18093B   22099.06338668  .00000003  00000+0  00000+0 0  9995
2 43707  54.3809 234.3296 0006632 312.1196 185.3720  1.86232083 23038
BEIDOU-3 IGSO-1 (C38)   
1 44204U 19023A   22098.75406184 -.00000198  00000+0  00000+0 0  9992
2 44204  56.4601  53.7185 0019955 205.3347 328.6831  1.00278894 11013
BEIDOU-2 G8             
1 44231U 19027A   22099.63205299 -.00000247  00000+0  00000+0 0  9993
2 44231   0.6997  72.6769 0004227 140.5017 356.7372  1.00274976 10737
BEIDOU-3 IGSO-2 (C39)   
1 44337U 19035A   22099.65809185 -.00000140  00000+0  00000+0 0  9997
2 44337  55.1122 172.3385 0022985 194.0185 187.6359  1.00274001 10366
BEIDOU-3 M23 (C45)      
1 44542U 19061A   22099.46662050  .00000001  00000+0  00000+0 0  9996
2 44542  54.6061 234.4540 0007522 346.4663  13.4846  1.86231274 17304
BEIDOU-3 M24 (C46)      
1 44543U 19061B   22099.10077962  .00000004  00000+0  00000+0 0  9993
2 44543  54.6059 234.4348 0004802 346.4335  39.4507  1.86231593 17296
BEIDOU-3 IGSO-3         
1 44709U 19073A   22099.33182530 -.00000143  00000+0  00000+0 0  9998
2 44709  57.3772 297.0920 0021221 172.2307 327.2421  1.00277194  9119
BEIDOU-3 M21            
1 44793U 19078A   22099.03776108 -.00000100  00000+0  10000-3 0  9991
2 44793  54.9940 353.0073 0007584   8.1322 168.9672  1.86232099 16153
BEIDOU-3 M22            
1 44794U 19078B   22099.17181535 -.00000099  00000+0  00000+0 0  9993
2 44794  54.9684 352.9942 0005540   4.1808 174.3348  1.86232685 16159
BEIDOU-3 M19            
1 44864U 19090A   22098.87494935  .00000040  00000+0  00000+0 0  9997
2 44864  55.3730 113.9055 0018796 270.4953 263.4831  1.86231799 15735
BEIDOU-3 M20            
1 44865U 19090B   22099.18029106  .00000044  00000+0  00000+0 0  9991
2 44865  55.3749 113.9267 0017171 283.4433 185.1321  1.86231765 15719
BEIDOU-3 G2             
1 45344U 20017A   22099.49127524 -.00000143  00000+0  00000+0 0  9993
2 45344   2.1172 348.6636 0003199  79.8337  26.1032  1.00272204  7920
BEIDOU-3 G3             
1 45807U 20040A   22099.49729329 -.00000356  00000+0  00000+0 0  9990
2 45807   1.6006 301.6645 0007317 346.0583 199.4708  1.00266520  6737
